[{"OBJECT_NAME":"TISAT 1","OBJECT_ID":"2010-035E","EPOCH":"2026-03-09T18:10:07.877568","MEAN_MOTION":15.27628633,"ECCENTRICITY":0.00013432,"INCLINATION":98.0645,"RA_OF_ASC_NODE":6.8512,"ARG_OF_PERICENTER":159.303,"MEAN_ANOMALY":200.8262,"EPHEMERIS_TYPE":0,"CLASSIFICATION_TYPE":"U","NORAD_CAT_ID":36799,"ELEMENT_SET_NO":999,"REV_AT_EPOCH":85250,"BSTAR":0.00091004793,"MEAN_MOTION_DOT":0.00024554,"MEAN_MOTION_DDOT":0},{"OBJECT_NAME":"STARLINK-36034","OBJECT_ID":"2025-270X","EPOCH":"2026-03-09T23:10:18.322176","MEAN_MOTION":15.27584857,"ECCENTRICITY":0.00010445,"INCLINATION":43.0015,"RA_OF_ASC_NODE":54.9914,"ARG_OF_PERICENTER":215.0502,"MEAN_ANOMALY":145.0281,"EPHEMERIS_TYPE":0,"CLASSIFICATION_TYPE":"U","NORAD_CAT_ID":66609,"ELEMENT_SET_NO":999,"REV_AT_EPOCH":1758,"BSTAR":0.0010090645,"MEAN_MOTION_DOT":0.00027613,"MEAN_MOTION_DDOT":0}]
